[{"OBJECT_NAME":"GAOFEN-10R","OBJECT_ID":"2019-066A","EPOCH":"2026-03-09T23:14:29.289984","MEAN_MOTION":14.83155833,"ECCENTRICITY":0.00081973,"INCLINATION":98.0397,"RA_OF_ASC_NODE":21.897,"ARG_OF_PERICENTER":105.6349,"MEAN_ANOMALY":254.577,"EPHEMERIS_TYPE":0,"CLASSIFICATION_TYPE":"U","NORAD_CAT_ID":44622,"ELEMENT_SET_NO":999,"REV_AT_EPOCH":34767,"BSTAR":0.00026312767,"MEAN_MOTION_DOT":2.093e-5,"MEAN_MOTION_DDOT":0},{"OBJECT_NAME":"KUIPER-00119","OBJECT_ID":"2025-171Z","EPOCH":"2026-03-09T13:41:23.129376","MEAN_MOTION":14.80048396,"ECCENTRICITY":7.9e-5,"INCLINATION":51.8996,"RA_OF_ASC_NODE":163.6949,"ARG_OF_PERICENTER":154.2212,"MEAN_ANOMALY":205.8789,"EPHEMERIS_TYPE":0,"CLASSIFICATION_TYPE":"U","NORAD_CAT_ID":65155,"ELEMENT_SET_NO":999,"REV_AT_EPOCH":3279,"BSTAR":0.0007766,"MEAN_MOTION_DOT":5.72e-5,"MEAN_MOTION_DDOT":0}]
